{
    "links": {
        "self": "http://www.neowsapp.com/rest/v1/neo/3872637?api_key=iIulBulltgU6a56xZRHN4H3l9WmuAYTsLGpBGhQ2"
    },
    "id": "3872637",
    "neo_reference_id": "3872637",
    "name": "(2019 SL8)",
    "designation": "2019 SL8",
    "nasa_jpl_url": "http://ssd.jpl.nasa.gov/sbdb.cgi?sstr=3872637",
    "absolute_magnitude_h": 25.9,
    "estimated_diameter": {
        "kilometers": {
            "estimated_diameter_min": 0.0175612318,
            "estimated_diameter_max": 0.0392681082
        },
        "meters": {
            "estimated_diameter_min": 17.561231848,
            "estimated_diameter_max": 39.2681081809
        },
        "miles": {
            "estimated_diameter_min": 0.0109120402,
            "estimated_diameter_max": 0.0244000636
        },
        "feet": {
            "estimated_diameter_min": 57.6155918963,
            "estimated_diameter_max": 128.8323800441
        }
    },
    "is_potentially_hazardous_asteroid": false,
    "close_approach_data": [
        {
            "close_approach_date": "2011-09-22",
            "close_approach_date_full": "2011-Sep-22 03:47",
            "epoch_date_close_approach": 1316663220000,
            "relative_velocity": {
                "kilometers_per_second": "19.0708307237",
                "kilometers_per_hour": "68654.9906052138",
                "miles_per_hour": "42659.5412457785"
            },
            "miss_distance": {
                "astronomical": "0.2404486407",
                "lunar": "93.5345212323",
                "kilometers": "35970604.493115309",
                "miles": "22351097.1978729042"
            },
            "orbiting_body": "Earth"
        },
        {
            "close_approach_date": "2015-09-27",
            "close_approach_date_full": "2015-Sep-27 19:49",
            "epoch_date_close_approach": 1443383340000,
            "relative_velocity": {
                "kilometers_per_second": "15.9368687159",
                "kilometers_per_hour": "57372.7273771198",
                "miles_per_hour": "35649.181630522"
            },
            "miss_distance": {
                "astronomical": "0.1207573862",
                "lunar": "46.9746232318",
                "kilometers": "18065047.762287394",
                "miles": "11225100.1646742772"
            },
            "orbiting_body": "Earth"
        },
        {
            "close_approach_date": "2019-10-03",
            "close_approach_date_full": "2019-Oct-03 02:40",
            "epoch_date_close_approach": 1570070400000,
            "relative_velocity": {
                "kilometers_per_second": "13.2606262783",
                "kilometers_per_hour": "47738.2546017605",
                "miles_per_hour": "29662.694921855"
            },
            "miss_distance": {
                "astronomical": "0.0201965418",
                "lunar": "7.8564547602",
                "kilometers": "3021359.634645966",
                "miles": "1877385.8214316908"
            },
            "orbiting_body": "Earth"
        },
        {
            "close_approach_date": "2023-10-06",
            "close_approach_date_full": "2023-Oct-06 23:41",
            "epoch_date_close_approach": 1696635660000,
            "relative_velocity": {
                "kilometers_per_second": "11.5597540274",
                "kilometers_per_hour": "41615.1144987606",
                "miles_per_hour": "25858.013783966"
            },
            "miss_distance": {
                "astronomical": "0.0727029346",
                "lunar": "28.2814415594",
                "kilometers": "10876204.158909302",
                "miles": "6758159.8843082876"
            },
            "orbiting_body": "Earth"
        }
    ],
    "orbital_data": {
        "orbit_id": "2",
        "orbit_determination_date": "2019-10-20 06:04:45",
        "first_observation_date": "2019-09-29",
        "last_observation_date": "2019-10-01",
        "data_arc_in_days": 2,
        "observations_used": 23,
        "orbit_uncertainty": "8",
        "minimum_orbit_intersection": ".0185514",
        "jupiter_tisserand_invariant": "5.147",
        "epoch_osculation": "2458756.5",
        "eccentricity": ".3626054017806848",
        "semi_major_axis": "1.214994145375713",
        "inclination": "16.29005505954703",
        "ascending_node_longitude": "6.957928215387883",
        "orbital_period": "489.1698762203343",
        "perihelion_distance": ".7744307051305729",
        "perihelion_argument": "86.22003689626843",
        "aphelion_distance": "1.655557585620853",
        "perihelion_time": "2458819.593861061601",
        "mean_anomaly": "313.5666624492929",
        "mean_motion": ".7359406568156029",
        "equinox": "J2000",
        "orbit_class": {
            "orbit_class_type": "APO",
            "orbit_class_description": "Near-Earth asteroid orbits which cross the Earth’s orbit similar to that of 1862 Apollo",
            "orbit_class_range": "a (semi-major axis) > 1.0 AU; q (perihelion) < 1.017 AU"
        }
    },
    "is_sentry_object": false
}